NOAA 16 DEB             
1 42425U 00055TV  24124.92859793  .00003026  00000+0  16663-2 0  9996
2 42425  98.7378 167.0519 0025230 259.9076  99.9250 14.12163116397144
